{
  "type": "FeatureCollection",
  "features": [
    {
      "type": "Feature",
      "properties": {
        "norad_id": 37971,
        "name": "COSMOS 2251 DEB",
        "group": "cosmos-2251-debris",
        "lat": 50.07360824763421,
        "lon": 81.47042464418716,
        "alt_km": 766.6488419315128,
        "timestamp": "2025-12-02T06:27:53.409232+00:00",
        "meta_object_name": "COSMOS 2251 DEB",
        "meta_object_id": "1993-036BPW",
        "meta_epoch": "2025-11-29T00:18:05.662656",
        "meta_mean_motion": 14.48271689,
        "meta_eccentricity": 0.00679229,
        "meta_inclination": 73.9931,
        "meta_ra_of_asc_node": 67.5234,
        "meta_arg_of_pericenter": 206.9835,
        "meta_mean_anomaly": 152.7788,
        "meta_ephemeris_type": 0,
        "meta_classification_type": "U",
        "meta_norad_cat_id": 37971,
        "meta_element_set_no": 999,
        "meta_rev_at_epoch": 60479,
        "meta_bstar": 0.001970982,
        "meta_mean_motion_dot": 7.558e-05,
        "meta_mean_motion_ddot": 0,
        "tle_line1": "1 37971U 93036BPW 25333.01256554  .00007558  00000+0  19710-2 0  9996",
        "tle_line2": "2 37971  73.9931  67.5234 0067922 206.9835 152.7788 14.48271689604791"
      },
      "geometry": {
        "type": "Point",
        "coordinates": [
          81.47042464418716,
          50.07360824763421
        ]
      }
    },
    {
      "type": "Feature",
      "properties": {
        "norad_id": 37975,
        "name": "COSMOS 2251 DEB",
        "group": "cosmos-2251-debris",
        "lat": 0.7423604833413646,
        "lon": -15.188010997291196,
        "alt_km": 585.0342217069183,
        "timestamp": "2025-12-02T06:27:53.409242+00:00",
        "meta_object_name": "COSMOS 2251 DEB",
        "meta_object_id": "1993-036BQA",
        "meta_epoch": "2025-11-29T10:05:48.736608",
        "meta_mean_motion": 14.74991313,
        "meta_eccentricity": 0.00977788,
        "meta_inclination": 74.0026,
        "meta_ra_of_asc_node": 350.1763,
        "meta_arg_of_pericenter": 342.2584,
        "meta_mean_anomaly": 17.5181,
        "meta_ephemeris_type": 0,
        "meta_classification_type": "U",
        "meta_norad_cat_id": 37975,
        "meta_element_set_no": 999,
        "meta_rev_at_epoch": 69549,
        "meta_bstar": 0.0028756754,
        "meta_mean_motion_dot": 0.00020929,
        "meta_mean_motion_ddot": 0,
        "tle_line1": "1 37975U 93036BQA 25333.42070297  .00020929  00000+0  28757-2 0  9991",
        "tle_line2": "2 37975  74.0026 350.1763 0097778 342.2584  17.5181 14.74991313695491"
      },
      "geometry": {
        "type": "Point",
        "coordinates": [
          -15.188010997291196,
          0.7423604833413646
        ]
      }
    },
    {
      "type": "Feature",
      "properties": {
        "norad_id": 37978,
        "name": "COSMOS 2251 DEB",
        "group": "cosmos-2251-debris",
        "lat": 16.3743933916733,
        "lon": -71.95257886783803,
        "alt_km": 343.32069817865886,
        "timestamp": "2025-12-02T06:27:53.409252+00:00",
        "meta_object_name": "COSMOS 2251 DEB",
        "meta_object_id": "1993-036BQD",
        "meta_epoch": "2025-11-19T05:08:53.100672",
        "meta_mean_motion": 15.61137081,
        "meta_eccentricity": 0.00148985,
        "meta_inclination": 74.0238,
        "meta_ra_of_asc_node": 142.2198,
        "meta_arg_of_pericenter": 140.9849,
        "meta_mean_anomaly": 219.2448,
        "meta_ephemeris_type": 0,
        "meta_classification_type": "U",
        "meta_norad_cat_id": 37978,
        "meta_element_set_no": 999,
        "meta_rev_at_epoch": 8032,
        "meta_bstar": 0.0043958825,
        "meta_mean_motion_dot": 0.0039117,
        "meta_mean_motion_ddot": 0,
        "tle_line1": "1 37978U 93036BQD 25323.21450348  .00391170  00000+0  43959-2 0  9999",
        "tle_line2": "2 37978  74.0238 142.2198 0014898 140.9849 219.2448 15.61137081 80328"
      },
      "geometry": {
        "type": "Point",
        "coordinates": [
          -71.95257886783803,
          16.3743933916733
        ]
      }
    },
    {
      "type": "Feature",
      "properties": {
        "norad_id": 37985,
        "name": "COSMOS 2251 DEB",
        "group": "cosmos-2251-debris",
        "lat": 38.87326269421257,
        "lon": 91.6042696784763,
        "alt_km": 769.6499516238,
        "timestamp": "2025-12-02T06:27:53.409271+00:00",
        "meta_object_name": "COSMOS 2251 DEB",
        "meta_object_id": "1993-036BQL",
        "meta_epoch": "2025-11-30T03:38:35.089728",
        "meta_mean_motion": 14.35476198,
        "meta_eccentricity": 0.00203975,
        "meta_inclination": 74.025,
        "meta_ra_of_asc_node": 288.8408,
        "meta_arg_of_pericenter": 55.5438,
        "meta_mean_anomaly": 304.7638,
        "meta_ephemeris_type": 0,
        "meta_classification_type": "U",
        "meta_norad_cat_id": 37985,
        "meta_element_set_no": 999,
        "meta_rev_at_epoch": 64736,
        "meta_bstar": 6.4630742e-05,
        "meta_mean_motion_dot": 1.6e-06,
        "meta_mean_motion_ddot": 0,
        "tle_line1": "1 37985U 93036BQL 25334.15179502  .00000160  00000+0  64631-4 0  9990",
        "tle_line2": "2 37985  74.0250 288.8408 0020397  55.5438 304.7638 14.35476198647366"
      },
      "geometry": {
        "type": "Point",
        "coordinates": [
          91.6042696784763,
          38.87326269421257
        ]
      }
    },
    {
      "type": "Feature",
      "properties": {
        "norad_id": 37988,
        "name": "COSMOS 2251 DEB",
        "group": "cosmos-2251-debris",
        "lat": -33.03451019697904,
        "lon": 33.54590149657741,
        "alt_km": 693.0447315094871,
        "timestamp": "2025-12-02T06:27:53.409282+00:00",
        "meta_object_name": "COSMOS 2251 DEB",
        "meta_object_id": "1993-036BQP",
        "meta_epoch": "2025-12-01T12:38:22.303392",
        "meta_mean_motion": 14.68688487,
        "meta_eccentricity": 0.00634625,
        "meta_inclination": 74.064,
        "meta_ra_of_asc_node": 45.6876,
        "meta_arg_of_pericenter": 87.0003,
        "meta_mean_anomaly": 273.8427,
        "meta_ephemeris_type": 0,
        "meta_classification_type": "U",
        "meta_norad_cat_id": 37988,
        "meta_element_set_no": 999,
        "meta_rev_at_epoch": 23231,
        "meta_bstar": 0.00084815195,
        "meta_mean_motion_dot": 5.063e-05,
        "meta_mean_motion_ddot": 0,
        "tle_line1": "1 37988U 93036BQP 25335.52664703  .00005063  00000+0  84815-3 0  9999",
        "tle_line2": "2 37988  74.0640  45.6876 0063462  87.0003 273.8427 14.68688487232317"
      },
      "geometry": {
        "type": "Point",
        "coordinates": [
          33.54590149657741,
          -33.03451019697904
        ]
      }
    },
    {
      "type": "Feature",
      "properties": {
        "norad_id": 37993,
        "name": "COSMOS 2251 DEB",
        "group": "cosmos-2251-debris",
        "lat": 71.95386881020949,
        "lon": -111.53297693950103,
        "alt_km": 701.9820758844253,
        "timestamp": "2025-12-02T06:27:53.409292+00:00",
        "meta_object_name": "COSMOS 2251 DEB",
        "meta_object_id": "1993-036BQU",
        "meta_epoch": "2025-12-01T15:17:18.489984",
        "meta_mean_motion": 14.59707982,
        "meta_eccentricity": 0.00221925,
        "meta_inclination": 74.0231,
        "meta_ra_of_asc_node": 188.1105,
        "meta_arg_of_pericenter": 277.7268,
        "meta_mean_anomaly": 82.1377,
        "meta_ephemeris_type": 0,
        "meta_classification_type": "U",
        "meta_norad_cat_id": 37993,
        "meta_element_set_no": 999,
        "meta_rev_at_epoch": 65155,
        "meta_bstar": 0.0011399711,
        "meta_mean_motion_dot": 5.429e-05,
        "meta_mean_motion_ddot": 0,
        "tle_line1": "1 37993U 93036BQU 25335.63701956  .00005429  00000+0  11400-2 0  9994",
        "tle_line2": "2 37993  74.0231 188.1105 0022192 277.7268  82.1377 14.59707982651551"
      },
      "geometry": {
        "type": "Point",
        "coordinates": [
          -111.53297693950103,
          71.95386881020949
        ]
      }
    },
    {
      "type": "Feature",
      "properties": {
        "norad_id": 37994,
        "name": "COSMOS 2251 DEB",
        "group": "cosmos-2251-debris",
        "lat": -28.892406382438896,
        "lon": 124.11253484023541,
        "alt_km": 780.9598411662892,
        "timestamp": "2025-12-02T06:27:53.409302+00:00",
        "meta_object_name": "COSMOS 2251 DEB",
        "meta_object_id": "1993-036BQV",
        "meta_epoch": "2025-12-01T14:28:54.543648",
        "meta_mean_motion": 14.39578165,
        "meta_eccentricity": 0.00224049,
        "meta_inclination": 74.0357,
        "meta_ra_of_asc_node": 296.2525,
        "meta_arg_of_pericenter": 18.1196,
        "meta_mean_anomaly": 342.0752,
        "meta_ephemeris_type": 0,
        "meta_classification_type": "U",
        "meta_norad_cat_id": 37994,
        "meta_element_set_no": 999,
        "meta_rev_at_epoch": 76904,
        "meta_bstar": 0.00041337184,
        "meta_mean_motion_dot": 1.268e-05,
        "meta_mean_motion_ddot": 0,
        "tle_line1": "1 37994U 93036BQV 25335.60340907  .00001268  00000+0  41337-3 0  9997",
        "tle_line2": "2 37994  74.0357 296.2525 0022404  18.1196 342.0752 14.39578165769047"
      },
      "geometry": {
        "type": "Point",
        "coordinates": [
          124.11253484023541,
          -28.892406382438896
        ]
      }
    }
  ]
}